{
  "type": "FeatureCollection",
  "features": [
    {
      "type": "Feature",
      "properties": {
        "norad_id": 40938,
        "name": "BEIDOU-3S IGSO-2S (C56)",
        "group": "beidou",
        "lat": 24.537685050620336,
        "lon": 57.91954959745983,
        "alt_km": 35592.11114120454,
        "timestamp": "2025-12-26T14:28:47.967067+00:00",
        "meta_object_name": "BEIDOU-3S IGSO-2S (C56)",
        "meta_object_id": "2015-053A",
        "meta_epoch": "2025-12-26T06:00:23.194944",
        "meta_mean_motion": 1.00267028,
        "meta_eccentricity": 0.0060661,
        "meta_inclination": 49.4896,
        "meta_ra_of_asc_node": 260.8471,
        "meta_arg_of_pericenter": 188.3782,
        "meta_mean_anomaly": 191.6078,
        "meta_ephemeris_type": 0,
        "meta_classification_type": "U",
        "meta_norad_cat_id": 40938,
        "meta_element_set_no": 999,
        "meta_rev_at_epoch": 3762,
        "meta_bstar": 0,
        "meta_mean_motion_dot": -1.23e-06,
        "meta_mean_motion_ddot": 0,
        "tle_line1": "1 40938U 15053A   25360.25026846 -.00000123  00000+0  00000+0 0  9992",
        "tle_line2": "2 40938  49.4896 260.8471 0060661 188.3782 191.6078  1.00267028 37626"
      },
      "geometry": {
        "type": "Point",
        "coordinates": [
          57.91954959745983,
          24.537685050620336
        ]
      }
    },
    {
      "type": "Feature",
      "properties": {
        "norad_id": 41434,
        "name": "BEIDOU-2 IGSO-6 (C13)",
        "group": "beidou",
        "lat": 5.98701669590245,
        "lon": 43.26251609869746,
        "alt_km": 35966.045823377004,
        "timestamp": "2025-12-26T14:28:47.967079+00:00",
        "meta_object_name": "BEIDOU-2 IGSO-6 (C13)",
        "meta_object_id": "2016-021A",
        "meta_epoch": "2025-12-25T02:21:14.682240",
        "meta_mean_motion": 1.00290736,
        "meta_eccentricity": 0.00608236,
        "meta_inclination": 59.9818,
        "meta_ra_of_asc_node": 39.7747,
        "meta_arg_of_pericenter": 230.5129,
        "meta_mean_anomaly": 312.5474,
        "meta_ephemeris_type": 0,
        "meta_classification_type": "U",
        "meta_norad_cat_id": 41434,
        "meta_element_set_no": 999,
        "meta_rev_at_epoch": 3573,
        "meta_bstar": 0,
        "meta_mean_motion_dot": -1.35e-06,
        "meta_mean_motion_ddot": 0,
        "tle_line1": "1 41434U 16021A   25359.09808660 -.00000135  00000+0  00000+0 0  9995",
        "tle_line2": "2 41434  59.9818  39.7747 0060823 230.5129 312.5474  1.00290736 35738"
      },
      "geometry": {
        "type": "Point",
        "coordinates": [
          43.26251609869746,
          5.98701669590245
        ]
      }
    },
    {
      "type": "Feature",
      "properties": {
        "norad_id": 41586,
        "name": "BEIDOU-2 G7 (C03)",
        "group": "beidou",
        "lat": -0.14059615818051655,
        "lon": 62.94454425068452,
        "alt_km": 35765.433150060795,
        "timestamp": "2025-12-26T14:28:47.967091+00:00",
        "meta_object_name": "BEIDOU-2 G7 (C03)",
        "meta_object_id": "2016-037A",
        "meta_epoch": "2025-12-26T03:03:38.712096",
        "meta_mean_motion": 1.00268059,
        "meta_eccentricity": 0.00051813,
        "meta_inclination": 1.7876,
        "meta_ra_of_asc_node": 67.9052,
        "meta_arg_of_pericenter": 0.6585,
        "meta_mean_anomaly": 182.6402,
        "meta_ephemeris_type": 0,
        "meta_classification_type": "U",
        "meta_norad_cat_id": 41586,
        "meta_element_set_no": 999,
        "meta_rev_at_epoch": 515,
        "meta_bstar": 0,
        "meta_mean_motion_dot": -3.32e-06,
        "meta_mean_motion_ddot": 0,
        "tle_line1": "1 41586U 16037A   25360.12753139 -.00000332  00000+0  00000+0 0  9995",
        "tle_line2": "2 41586   1.7876  67.9052 0005181   0.6585 182.6402  1.00268059  5158"
      },
      "geometry": {
        "type": "Point",
        "coordinates": [
          62.94454425068452,
          -0.14059615818051655
        ]
      }
    },
    {
      "type": "Feature",
      "properties": {
        "norad_id": 43001,
        "name": "BEIDOU-3 M1 (C19)",
        "group": "beidou",
        "lat": -50.5884125230791,
        "lon": -57.70713085637643,
        "alt_km": 21517.775153007286,
        "timestamp": "2025-12-26T14:28:47.967103+00:00",
        "meta_object_name": "BEIDOU-3 M1 (C19)",
        "meta_object_id": "2017-069A",
        "meta_epoch": "2025-12-25T03:49:47.920224",
        "meta_mean_motion": 1.86231313,
        "meta_eccentricity": 0.0009789,
        "meta_inclination": 56.5365,
        "meta_ra_of_asc_node": 68.8241,
        "meta_arg_of_pericenter": 302.2681,
        "meta_mean_anomaly": 57.6912,
        "meta_ephemeris_type": 0,
        "meta_classification_type": "U",
        "meta_norad_cat_id": 43001,
        "meta_element_set_no": 999,
        "meta_rev_at_epoch": 5536,
        "meta_bstar": 0,
        "meta_mean_motion_dot": -2.5e-07,
        "meta_mean_motion_ddot": 0,
        "tle_line1": "1 43001U 17069A   25359.15958241 -.00000025  00000+0  00000+0 0  9996",
        "tle_line2": "2 43001  56.5365  68.8241 0009789 302.2681  57.6912  1.86231313 55361"
      },
      "geometry": {
        "type": "Point",
        "coordinates": [
          -57.70713085637643,
          -50.5884125230791
        ]
      }
    },
    {
      "type": "Feature",
      "properties": {
        "norad_id": 43002,
        "name": "BEIDOU-3 M2 (C20)",
        "group": "beidou",
        "lat": -51.996261797932924,
        "lon": 11.113602015499334,
        "alt_km": 21519.01903157509,
        "timestamp": "2025-12-26T14:28:47.967123+00:00",
        "meta_object_name": "BEIDOU-3 M2 (C20)",
        "meta_object_id": "2017-069B",
        "meta_epoch": "2025-12-25T15:14:16.903968",
        "meta_mean_motion": 1.86231039,
        "meta_eccentricity": 0.0006764,
        "meta_inclination": 56.5366,
        "meta_ra_of_asc_node": 68.8439,
        "meta_arg_of_pericenter": 327.6836,
        "meta_mean_anomaly": 32.3283,
        "meta_ephemeris_type": 0,
        "meta_classification_type": "U",
        "meta_norad_cat_id": 43002,
        "meta_element_set_no": 999,
        "meta_rev_at_epoch": 5536,
        "meta_bstar": 0,
        "meta_mean_motion_dot": -2.7e-07,
        "meta_mean_motion_ddot": 0,
        "tle_line1": "1 43002U 17069B   25359.63491787 -.00000027  00000+0  00000+0 0  9999",
        "tle_line2": "2 43002  56.5366  68.8439 0006764 327.6836  32.3283  1.86231039 55361"
      },
      "geometry": {
        "type": "Point",
        "coordinates": [
          11.113602015499334,
          -51.996261797932924
        ]
      }
    },
    {
      "type": "Feature",
      "properties": {
        "norad_id": 43107,
        "name": "BEIDOU-3 M7 (C27)",
        "group": "beidou",
        "lat": 52.837584891035526,
        "lon": 58.06094063801715,
        "alt_km": 21514.942089485332,
        "timestamp": "2025-12-26T14:28:47.967144+00:00",
        "meta_object_name": "BEIDOU-3 M7 (C27)",
        "meta_object_id": "2018-003A",
        "meta_epoch": "2025-12-23T05:31:08.538816",
        "meta_mean_motion": 1.86232625,
        "meta_eccentricity": 0.0002961,
        "meta_inclination": 54.4874,
        "meta_ra_of_asc_node": 308.4506,
        "meta_arg_of_pericenter": 66.5422,
        "meta_mean_anomaly": 293.4915,
        "meta_ephemeris_type": 0,
        "meta_classification_type": "U",
        "meta_norad_cat_id": 43107,
        "meta_element_set_no": 999,
        "meta_rev_at_epoch": 5407,
        "meta_bstar": 0,
        "meta_mean_motion_dot": -5.5e-07,
        "meta_mean_motion_ddot": 0,
        "tle_line1": "1 43107U 18003A   25357.22995994 -.00000055  00000+0  00000+0 0  9997",
        "tle_line2": "2 43107  54.4874 308.4506 0002961  66.5422 293.4915  1.86232625 54072"
      },
      "geometry": {
        "type": "Point",
        "coordinates": [
          58.06094063801715,
          52.837584891035526
        ]
      }
    },
    {
      "type": "Feature",
      "properties": {
        "norad_id": 43108,
        "name": "BEIDOU-3 M8 (C28)",
        "group": "beidou",
        "lat": 32.62763456949237,
        "lon": 101.11433235228616,
        "alt_km": 21534.001075991764,
        "timestamp": "2025-12-26T14:28:47.967157+00:00",
        "meta_object_name": "BEIDOU-3 M8 (C28)",
        "meta_object_id": "2018-003B",
        "meta_epoch": "2025-12-24T05:58:21.185184",
        "meta_mean_motion": 1.86231107,
        "meta_eccentricity": 0.00045887,
        "meta_inclination": 54.4794,
        "meta_ra_of_asc_node": 308.398,
        "meta_arg_of_pericenter": 279.3969,
        "meta_mean_anomaly": 80.5568,
        "meta_ephemeris_type": 0,
        "meta_classification_type": "U",
        "meta_norad_cat_id": 43108,
        "meta_element_set_no": 999,
        "meta_rev_at_epoch": 5410,
        "meta_bstar": 0,
        "meta_mean_motion_dot": -5.4e-07,
        "meta_mean_motion_ddot": 0,
        "tle_line1": "1 43108U 18003B   25358.24885631 -.00000054  00000+0  00000+0 0  9996",
        "tle_line2": "2 43108  54.4794 308.3980 0004588 279.3969  80.5568  1.86231107 54103"
      },
      "geometry": {
        "type": "Point",
        "coordinates": [
          101.11433235228616,
          32.62763456949237
        ]
      }
    }
  ]
}